[{"OBJECT_NAME":"STARLINK-5470","OBJECT_ID":"2022-175U","EPOCH":"2026-03-09T08:26:26.814336","MEAN_MOTION":15.08840318,"ECCENTRICITY":0.00014317,"INCLINATION":53.2186,"RA_OF_ASC_NODE":45.2401,"ARG_OF_PERICENTER":90.9789,"MEAN_ANOMALY":269.1367,"EPHEMERIS_TYPE":0,"CLASSIFICATION_TYPE":"U","NORAD_CAT_ID":54776,"ELEMENT_SET_NO":999,"REV_AT_EPOCH":17987,"BSTAR":-2.0127197e-5,"MEAN_MOTION_DOT":-6.08e-6,"MEAN_MOTION_DDOT":0},{"OBJECT_NAME":"FENGYUN 1C DEB","OBJECT_ID":"1999-025DMH","EPOCH":"2026-03-08T12:22:59.285280","MEAN_MOTION":14.74467635,"ECCENTRICITY":0.01679532,"INCLINATION":98.8961,"RA_OF_ASC_NODE":332.7174,"ARG_OF_PERICENTER":174.5846,"MEAN_ANOMALY":185.7228,"EPHEMERIS_TYPE":0,"CLASSIFICATION_TYPE":"U","NORAD_CAT_ID":35153,"ELEMENT_SET_NO":999,"REV_AT_EPOCH":98481,"BSTAR":0.00043532495,"MEAN_MOTION_DOT":3.561e-5,"MEAN_MOTION_DDOT":0}]
